H1 CPF  1  HTS 2022 10 17 12  7901 larets           NONE
H2  0304206 5557    27944 2022 10 17  0  0  0 2022 10 22  0  0  0   180 1 1  0 0 0
H5  0.0560 
H9 
10 0 59868  85320.00000  0   -5552125.474   -4344677.057     421378.606
10 0 59868  85500.00000  0   -5685913.320   -4088079.841    -914505.482
10 0 59868  85680.00000  0   -5603898.015   -3681896.695   -2216837.824
10 0 59868  85860.00000  0   -5305495.095   -3146651.653   -3437872.513
10 0 59868  86040.00000  0   -4798652.118   -2507492.168   -4532922.956
10 0 59868  86220.00000  0   -4099620.893   -1793016.981   -5462014.866
10 0 59869      0.00000  0   -3232388.835   -1033994.075   -6191335.353
10 0 59869    180.00000  0   -2227803.944    -262031.565   -6694426.673
10 0 59869    360.00000  0   -1122437.478     491734.971   -6953092.986
10 0 59869    540.00000  0      42763.691    1197883.769   -6958004.948
10 0 59869    720.00000  0    1223984.292    1829838.534   -6709005.111
10 0 59869    900.00000  0    2376170.346    2364857.318   -6215116.174
10 0 59869   1080.00000  0    3454736.763    2784850.979   -5494239.432
10 0 59869   1260.00000  0    4417289.808    3077001.090   -4572547.727
10 0 59869   1440.00000  0    5225311.866    3234159.697   -3483586.062
10 0 59869   1620.00000  0    5845740.096    3255011.276   -2267086.664
10 0 59869   1800.00000  0    6252364.908    3143988.661    -967534.039
10 0 59869   1980.00000  0    6426978.081    2910938.869     367476.736
10 0 59869   2160.00000  0    6360203.817    2570550.358    1689020.311
10 0 59869   2340.00000  0    6051966.360    2141573.324    2948679.315
10 0 59869   2520.00000  0    5511570.618    1645875.488    4100362.605
10 0 59869   2700.00000  0    4757387.900    1107380.052    5102018.068
10 0 59869   2880.00000  0    3816174.534     550946.016    5917163.207
10 0 59869   3060.00000  0    2722063.754       1246.513    6516186.049
10 0 59869   3240.00000  0    1515282.070    -518299.615    6877370.113
10 0 59869   3420.00000  0     240653.122    -986501.988    6987634.736
10 0 59869   3600.00000  0   -1054067.562   -1385247.478    6842975.134
10 0 59869   3780.00000  0   -2319965.411   -1700192.920    6448593.282
10 0 59869   3960.00000  0   -3508790.739   -1921277.920    5818726.703
10 0 59869   4140.00000  0   -4574791.102   -2043047.030    4976184.734
10 0 59869   4320.00000  0   -5476495.680   -2064773.433    3951575.411
10 0 59869   4500.00000  0   -6178370.399   -1990370.318    2782236.021
10 0 59869   4680.00000  0   -6652275.499   -1828093.221    1510901.975
10 0 59869   4860.00000  0   -6878661.986   -1590047.601     184144.427
10 0 59869   5040.00000  0   -6847427.662   -1291516.906   -1149370.326
10 0 59869   5220.00000  0   -6558382.089    -950145.347   -2440717.709
10 0 59869   5400.00000  0   -6021294.078    -585021.997   -3642562.561
10 0 59869   5580.00000  0   -5255522.913    -215714.620   -4710935.167
10 0 59869   5760.00000  0   -4289254.576     138699.752   -5606855.331
10 0 59869   5940.00000  0   -3158390.600     460553.290   -6297738.978
10 0 59869   6120.00000  0   -1905150.826     734410.392   -6758538.909
10 0 59869   6300.00000  0    -576462.189     947760.881   -6972597.748
10 0 59869   6480.00000  0     777805.001    1091559.891   -6932200.457
10 0 59869   6660.00000  0    2106690.659    1160596.268   -6638828.868
10 0 59869   6840.00000  0    3360046.416    1153680.068   -6103115.390
10 0 59869   7020.00000  0    4490419.790    1073642.338   -5344482.998
10 0 59869   7200.00000  0    5454858.245     927146.275   -4390486.447
10 0 59869   7380.00000  0    6216577.494     724317.801   -3275859.940
10 0 59869   7560.00000  0    6746420.113     478207.096   -2041286.942
10 0 59869   7740.00000  0    7024039.179     204103.768    -731926.298
10 0 59869   7920.00000  0    7038737.242     -81263.550     604259.870
10 0 59869   8100.00000  0    6789911.979    -360601.707    1918301.408
10 0 59869   8280.00000  0    6287083.961    -616958.229    3162063.581
10 0 59869   8460.00000  0    5549497.788    -834607.332    4290053.003
10 0 59869   8640.00000  0    4605327.888    -999869.379    5261099.425
10 0 59869   8820.00000  0    3490536.200   -1101824.203    6039850.809
10 0 59869   9000.00000  0    2247443.315   -1132881.511    6598025.762
10 0 59869   9180.00000  0     923086.124   -1089189.817    6915392.783
10 0 59869   9360.00000  0    -432575.152    -970867.726    6980458.080
10 0 59869   9540.00000  0   -1768533.429    -782048.360    6790846.852
10 0 59869   9720.00000  0   -3034630.635    -530736.792    6353382.218
10 0 59869   9900.00000  0   -4183422.343    -228483.278    5683865.860
10 0 59869  10080.00000  0   -5171962.493     110116.812    4806556.850
10 0 59869  10260.00000  0   -5963443.865     468080.206    3753344.577
10 0 59869  10440.00000  0   -6528624.265     826826.970    2562631.670
10 0 59869  10620.00000  0   -6846976.479    1167073.983    1277957.118
10 0 59869  10800.00000  0   -6907503.935    1469788.045     -53602.864
10 0 59869  10980.00000  0   -6709168.540    1717150.843   -1383197.797
10 0 59869  11160.00000  0   -6260898.668    1893482.924   -2662047.563
10 0 59869  11340.00000  0   -5581180.702    1986079.894   -3843285.375
10 0 59869  11520.00000  0   -4697248.769    1985913.186   -4883716.139
10 0 59869  11700.00000  0   -3643925.129    1888158.248   -5745403.191
10 0 59869  11880.00000  0   -2462184.331    1692529.838   -6397026.056
10 0 59869  12060.00000  0   -1197513.767    1403412.245   -6814974.631
10 0 59869  12240.00000  0     101860.858    1029781.080   -6984149.247
10 0 59869  12420.00000  0    1386807.283     584923.430   -6898459.458
10 0 59869  12600.00000  0    2609126.084      85966.695   -6561028.002
10 0 59869  12780.00000  0    3723345.095    -446773.334   -5984084.159
10 0 59869  12960.00000  0    4688406.763    -990602.583   -5188550.046
10 0 59869  13140.00000  0    5469197.829   -1521392.776   -4203330.919
10 0 59869  13320.00000  0    6037871.110   -2014627.772   -3064312.851
10 0 59869  13500.00000  0    6374896.695   -2446507.891   -1813085.625
10 0 59869  13680.00000  0    6469789.035   -2795062.426    -495428.130
10 0 59869  13860.00000  0    6321468.356   -3041213.394     840387.850
10 0 59869  14040.00000  0    5938233.884   -3169735.068    2145407.402
10 0 59869  14220.00000  0    5337342.089   -3170056.562    3371837.128
10 0 59869  14400.00000  0    4544211.621   -3036863.162    4474833.220
10 0 59869  14580.00000  0    3591308.812   -2770467.352    5414153.681
10 0 59869  14760.00000  0    2516772.484   -2376939.052    6155615.837
10 0 59869  14940.00000  0    1362847.213   -1867986.995    6672303.016
10 0 59869  15120.00000  0     174202.661   -1260604.855    6945492.009
10 0 59869  15300.00000  0   -1003795.745    -576496.762    6965284.694
10 0 59869  15480.00000  0   -2126801.461     158697.177    6730937.625
10 0 59869  15660.00000  0   -3153136.452     916351.370    6250890.624
10 0 59869  15840.00000  0   -4045329.740    1665953.796    5542492.799
10 0 59869  16020.00000  0   -4771499.928    2376319.871    4631425.983
10 0 59869  16200.00000  0   -5306532.739    3016882.609    3550825.978
10 0 59869  16380.00000  0   -5632998.975    3559006.630    2340116.301
10 0 59869  16560.00000  0   -5741772.902    3977269.055    1043588.952
10 0 59869  16740.00000  0   -5632314.812    4250645.033    -291229.967
10 0 59869  16920.00000  0   -5312592.228    4363529.354   -1615362.234
10 0 59869  17100.00000  0   -4798642.511    4306541.406   -2880230.788
10 0 59869  17280.00000  0   -4113790.106    4077062.616   -4039498.242
10 0 59869  17460.00000  0   -3287567.082    3679479.496   -5050796.084
10 0 59869  17640.00000  0   -2354404.403    3125128.846   -5877270.703
10 0 59869  17820.00000  0   -1352168.177    2431956.742   -6488897.572
10 0 59869  18000.00000  0    -320602.633    1623907.314   -6863526.575
10 0 59869  18180.00000  0     700247.933     730073.194   -6987629.599
10 0 59869  18360.00000  0    1671580.143    -216356.647   -6856750.166
10 0 59869  18540.00000  0    2557292.693   -1179322.049   -6475647.765
10 0 59869  18720.00000  0    3325316.430   -2121250.372   -5858133.865
10 0 59869  18900.00000  0    3948777.944   -3004506.902   -5026609.300
10 0 59869  19080.00000  0    4406961.962   -3792899.517   -4011301.374
10 0 59869  19260.00000  0    4686026.499   -4453172.988   -2849206.601
10 0 59869  19440.00000  0    4779447.144   -4956430.660   -1582772.126
10 0 59869  19620.00000  0    4688163.820   -5279419.903    -258346.221
10 0 59869  19800.00000  0    4420410.907   -5405610.193    1075546.108
10 0 59869  19980.00000  0    3991237.474   -5326001.330    2370026.884
10 0 59869  20160.00000  0    3421739.458   -5039616.294    3577704.404
10 0 59869  20340.00000  0    2738048.139   -4553657.684    4654440.692
10 0 59869  20520.00000  0    1970132.541   -3883321.628    5560974.012
10 0 59869  20700.00000  0    1150479.189   -3051285.375    6264333.374
10 0 59869  20880.00000  0     312711.842   -2086897.754    6738997.875
10 0 59869  21060.00000  0    -509784.365   -1025116.147    6967769.364
10 0 59869  21240.00000  0   -1285178.721      94767.567    6942352.729
10 0 59869  21420.00000  0   -1984410.955    1230573.359    6663635.873
10 0 59869  21600.00000  0   -2582270.429    2338804.623    6141663.714
10 0 59869  21780.00000  0   -3058305.226    3376298.186    5395308.329
10 0 59869  21960.00000  0   -3397534.327    4301904.083    4451638.493
10 0 59869  22140.00000  0   -3590938.535    5078137.769    3344991.537
10 0 59869  22320.00000  0   -3635704.367    5672738.012    2115761.125
10 0 59869  22500.00000  0   -3535204.883    6060053.041     808932.672
10 0 59869  22680.00000  0   -3298715.812    6222185.429    -527578.287
10 0 59869  22860.00000  0   -2940877.314    6149835.789   -1844727.138
10 0 59869  23040.00000  0   -2480920.839    5842782.694   -3094203.381
10 0 59869  23220.00000  0   -1941700.390    5309970.921   -4230251.386
99
